{
    "CCSDS_OMM_VERS": "3.0",
    "COMMENT": "GENERATED VIA SPACE-TRACK.ORG API",
    "CREATION_DATE": "2025-05-22T17:14:14",
    "ORIGINATOR": "18 SPCS",
    "OBJECT_NAME": "BEIDOU 3M24",
    "OBJECT_ID": "2019-061B",
    "CENTER_NAME": "EARTH",
    "REF_FRAME": "TEME",
    "TIME_SYSTEM": "UTC",
    "MEAN_ELEMENT_THEORY": "SGP4",
    "EPOCH": "2025-05-22T11:51:29.772576",
    "MEAN_MOTION": "1.86229102",
    "ECCENTRICITY": "0.00049910",
    "INCLINATION": "54.4095",
    "RA_OF_ASC_NODE": "195.8731",
    "ARG_OF_PERICENTER": "332.4270",
    "MEAN_ANOMALY": "44.1679",
    "EPHEMERIS_TYPE": "0",
    "CLASSIFICATION_TYPE": "U",
    "NORAD_CAT_ID": "44543",
    "ELEMENT_SET_NO": "999",
    "REV_AT_EPOCH": "3852",
    "BSTAR": "0.00000000000000",
    "MEAN_MOTION_DOT": "0.00000075",
    "MEAN_MOTION_DDOT": "0.0000000000000",
    "SEMIMAJOR_AXIS": "27906.378",
    "PERIOD": "773.241",
    "APOAPSIS": "21542.171",
    "PERIAPSIS": "21514.315",
    "OBJECT_TYPE": "PAYLOAD",
    "RCS_SIZE": "LARGE",
    "COUNTRY_CODE": "PRC",
    "LAUNCH_DATE": "2019-09-22",
    "SITE": "XSC",
    "DECAY_DATE": null,
    "FILE": "4736220",
    "GP_ID": "288145747",
    "TLE_LINE0": "0 BEIDOU 3M24",
    "TLE_LINE1": "1 44543U 19061B   25142.49409459  .00000075  00000-0  00000-0 0  9997",
    "TLE_LINE2": "2 44543  54.4095 195.8731 0004991 332.4270  44.1679  1.86229102 38527"
}